LEMUR-1                 
1 40044U 14033AL  26173.68351538  .00001370  00000+0  16251-3 0  9999
2 40044  97.7882 323.3664 0049458  61.0888 299.5275 14.85263225646286
LEMUR-2-GREENBERG       
1 42837U 17042N   26173.44507101  .00012732  00000+0  42091-3 0  9992
2 42837  97.3826 354.0459 0008021 354.5088   5.6064 15.31464866489191
LEMUR-2-ANDIS           
1 42838U 17042P   26173.46226519  .00016628  00000+0  49081-3 0  9990
2 42838  97.3686 354.2652 0007737 352.5036   7.6090 15.35021447489264
LEMUR-2-MONSON          
1 42839U 17042Q   26173.46527084  .00011376  00000+0  41708-3 0  9995
2 42839  97.4087 354.0302 0005737 345.9154  14.1925 15.28133048488976
LEMUR-2-FURIAUS         
1 42840U 17042R   26173.44254741  .00013573  00000+0  46355-3 0  9996
2 42840  97.3777 351.9867 0007821  52.5630 307.6321 15.30397485489017
LEMUR-2-PETERG          
1 42841U 17042S   26173.84108136  .00017603  00000+0  53557-3 0  9997
2 42841  97.3998 358.8808 0002820 331.3507  28.7580 15.34077040489305
LEMUR-2-DEMBITZ         
1 42842U 17042T   26173.06999633  .00012420  00000+0  42430-3 0  9992
2 42842  97.3832 354.6441 0006301  12.1383 348.0008 15.30420712489097
LEMUR-2-ZACHARY         
1 42845U 17042W   26173.48224422  .00036844  00000+0  64180-3 0  9990
2 42845  97.3603   5.2326 0002518   9.3835 350.7463 15.50663581490028
LEMUR-2-AMANDA-SVANTE   
1 48269U 21034B   26172.46595265  .00023015  00000+0  68960-3 0  9991
2 48269  97.5756 250.8648 0002814 194.3920 165.7243 15.34509242281718
LEMUR-2-SPECIAL-K       
1 48273U 21034F   26173.51983804  .00133718  00000+0  13005-2 0  9994
2 48273  97.5635 260.7684 0004775 223.0630 137.0257 15.65845617282525
LEMUR-2-EMBRIONOVIS     
1 56970U 23084AQ  26173.66828401  .00010472  00000+0  28525-3 0  9996
2 56970  97.6295 318.0787 0007464 297.3549  62.6935 15.37664965168526
LEMUR-2-DEVERILL-M-T    
1 57391U 23100F   26173.56322352  .00020704  00000+0  52101-3 0  9992
2 57391  99.4471 213.8739 0005789  32.0264 328.1326 15.39983406162079
LEMUR-2-BASS            
1 58259U 23174D   26173.20326762  .00013655  00000+0  30888-3 0  9992
2 58259  97.3844 257.9861 0008006 146.9705 213.2045 15.43236756146134
LEMUR-2-JK0903EM1407    
1 58336U 23174CJ  26173.81830454  .00020992  00000+0  35085-3 0  9999
2 58336  97.3923 264.4474 0005444 104.4816 255.7041 15.51929136146605
LEMUR-2-MJR092620       
1 58340U 23174CN  26173.21076289  .00015288  00000+0  32532-3 0  9992
2 58340  97.3975 263.3329 0007037 103.1727 257.0308 15.45033023146426
LEMUR-2-NIMBUS2000      
1 58899U 24022A   26173.08182510  .00016930  00000+0  42306-3 0  9999
2 58899  97.4109  23.1444 0010387 101.0193 259.2222 15.40159392133025
LEMUR-2-VALHALLA        
1 58900U 24022B   26173.53401921  .00012683  00000+0  32123-3 0  9999
2 58900  97.4108  23.5903 0010882  95.8464 264.4023 15.39809592133098
LEMUR-2-CAEL            
1 58903U 24022E   26173.53930912  .00013604  00000+0  33003-3 0  9991
2 58903  97.4091  24.5410 0009159  81.6769 278.5516 15.41123035133167
LEMUR-2-JOHNNYTRUONG    
1 59146U 24043BA  26173.66423567  .00033387  00000+0  40070-3 0  9993
2 59146  97.5382 325.7080 0004916 160.5871 199.5574 15.60826753128895
LEMUR-2-TOMATOKECHUP    
1 60471U 24149D   26173.18850450  .00008683  00000+0  24905-3 0  9995
2 60471  97.3795 255.2483 0001890 166.3167 193.8128 15.36119821102931
LEMUR-2-STELLA          
1 60533U 24149BT  26173.50899555  .00008987  00000+0  52843-3 0  9998
2 60533  97.6732 255.9871 0001369  96.7498 263.3888 15.11901580101306
LEMUR-2-MARHISYAM       
1 60536U 24149BW  26173.68987177  .00007471  00000+0  44676-3 0  9990
2 60536  97.6881 256.6237 0003468 107.1654 252.9956 15.11350826101313
LEMUR-2-AHMED-ASRAR     
1 60576U 24149DN  26173.52028257  .00009680  00000+0  55472-3 0  9992
2 60576  97.7000 258.5666 0001262  25.0190 335.1101 15.12810353101370
LEMUR-2-LLOYD           
1 60577U 24149DP  26173.67764147  .00007367  00000+0  46560-3 0  9992
2 60577  97.6744 254.8099 0005282 125.2535 234.9189 15.09327576101228
LEMUR-2-SQUIRRELCOMM    
1 60578U 24149DQ  26172.77002584  .00005001  00000+0  33631-3 0  9991
2 60578  97.6709 253.6668 0006042  47.8594 312.3146 15.07194365101093
LEMUR-2-SIERRINI        
1 60579U 24149DR  26173.84698471  .00009397  00000+0  56536-3 0  9998
2 60579  97.6836 256.4642 0006131 149.7752 210.3833 15.11043806101318
LEMUR-2-WILSON          
1 62694U 25009CP  26173.44886266  .00001608  00000+0  15152-3 0  9997
2 62694  97.7027 251.8212 0003968  43.9736 316.1800 14.95185520 78149
LEMUR-2-STAR-FOX        
1 62696U 25009CR  26173.68682405  .00005840  00000+0  44340-3 0  9997
2 62696  97.6951 255.2563 0004284  99.7507 260.4202 15.02569824 78385
LEMUR-2-ARIANNA         
1 62699U 25009CU  26173.68523460  .00005350  00000+0  40681-3 0  9995
2 62699  97.6889 255.0247 0004690 104.4527 255.7219 15.02548482 78384
LEMUR-2-ALISIA          
1 62706U 25009DB  26173.19603546  .00005243  00000+0  39597-3 0  9999
2 62706  97.6932 255.3314 0002503 188.3741 171.7443 15.02822076100915
