OBJECT_NAME,OBJECT_ID,EPOCH,MEAN_MOTION,ECCENTRICITY,INCLINATION,RA_OF_ASC_NODE,ARG_OF_PERICENTER,MEAN_ANOMALY,EPHEMERIS_TYPE,CLASSIFICATION_TYPE,NORAD_CAT_ID,ELEMENT_SET_NO,REV_AT_EPOCH,BSTAR,MEAN_MOTION_DOT,MEAN_MOTION_DDOT
LEMUR-1,2014-033AL,2026-06-22T16:24:15.728832,14.85263225,.00494587,97.7882,323.3664,61.0888,299.5275,0,U,40044,999,64628,.16251202E-3,.137E-4,0
LEMUR-2-GREENBERG,2017-042N,2026-06-22T10:40:54.135264,15.31464866,.00080217,97.3826,354.0459,354.5088,5.6064,0,U,42837,999,48919,.42090804E-3,.12732E-3,0
LEMUR-2-ANDIS,2017-042P,2026-06-22T11:05:39.712416,15.35021447,.00077378,97.3686,354.2652,352.5036,7.6090,0,U,42838,999,48926,.49081308E-3,.16628E-3,0
LEMUR-2-MONSON,2017-042Q,2026-06-22T11:09:59.400576,15.28133048,.00057379,97.4087,354.0302,345.9154,14.1925,0,U,42839,999,48897,.41708498E-3,.11376E-3,0
LEMUR-2-FURIAUS,2017-042R,2026-06-22T10:37:16.096224,15.30397485,.00078213,97.3777,351.9867,52.5630,307.6321,0,U,42840,999,48901,.46355297E-3,.13573E-3,0
LEMUR-2-PETERG,2017-042S,2026-06-22T20:11:09.429504,15.34077040,.00028201,97.3998,358.8808,331.3507,28.7580,0,U,42841,999,48930,.53557148E-3,.17603E-3,0
LEMUR-2-DEMBITZ,2017-042T,2026-06-22T01:40:47.682912,15.30420712,.0006301,97.3832,354.6441,12.1383,348.0008,0,U,42842,999,48909,.42430074E-3,.1242E-3,0
LEMUR-2-ZACHARY,2017-042W,2026-06-22T11:34:25.900608,15.50663581,.00025187,97.3603,5.2326,9.3835,350.7463,0,U,42845,999,49002,.64179648E-3,.36844E-3,0
LEMUR-2-AMANDA-SVANTE,2021-034B,2026-06-21T11:10:58.308960,15.34509242,.00028141,97.5756,250.8648,194.3920,165.7243,0,U,48269,999,28171,.68959871E-3,.23015E-3,0
LEMUR-2-SPECIAL-K,2021-034F,2026-06-22T12:28:34.006656,15.65845617,.00047754,97.5635,260.7684,223.0630,137.0257,0,U,48273,999,28252,.13005191E-2,.133718E-2,0
LEMUR-2-EMBRIONOVIS,2023-084AQ,2026-06-22T16:02:19.738464,15.37664965,.00074648,97.6295,318.0787,297.3549,62.6935,0,U,56970,999,16852,.28525108E-3,.10472E-3,0
LEMUR-2-DEVERILL-M-T,2023-100F,2026-06-22T13:31:02.512128,15.39983406,.00057896,99.4471,213.8739,32.0264,328.1326,0,U,57391,999,16207,.52101061E-3,.20704E-3,0
LEMUR-2-BASS,2023-174D,2026-06-22T04:52:42.322368,15.43236756,.00080061,97.3844,257.9861,146.9705,213.2045,0,U,58259,999,14613,.30887795E-3,.13655E-3,0
LEMUR-2-JK0903EM1407,2023-174CJ,2026-06-22T19:38:21.512256,15.51929136,.00054445,97.3923,264.4474,104.4816,255.7041,0,U,58336,999,14660,.35085355E-3,.20992E-3,0
LEMUR-2-MJR092620,2023-174CN,2026-06-22T05:03:29.913696,15.45033023,.00070371,97.3975,263.3329,103.1727,257.0308,0,U,58340,999,14642,.32532041E-3,.15288E-3,0
LEMUR-2-NIMBUS2000,2024-022A,2026-06-22T01:57:49.688640,15.40159392,.00103875,97.4109,23.1444,101.0193,259.2222,0,U,58899,999,13302,.4230621E-3,.1693E-3,0
LEMUR-2-VALHALLA,2024-022B,2026-06-22T12:48:59.259744,15.39809592,.00108829,97.4108,23.5903,95.8464,264.4023,0,U,58900,999,13309,.32122724E-3,.12683E-3,0
LEMUR-2-CAEL,2024-022E,2026-06-22T12:56:36.307968,15.41123035,.00091597,97.4091,24.5410,81.6769,278.5516,0,U,58903,999,13316,.33002522E-3,.13604E-3,0
LEMUR-2-JOHNNYTRUONG,2024-043BA,2026-06-22T15:56:29.961888,15.60826753,.00049161,97.5382,325.7080,160.5871,199.5574,0,U,59146,999,12889,.4007045E-3,.33387E-3,0
LEMUR-2-TOMATOKECHUP,2024-149D,2026-06-22T04:31:26.788800,15.36119821,.00018907,97.3795,255.2483,166.3167,193.8128,0,U,60471,999,10293,.24905088E-3,.8683E-4,0
LEMUR-2-STELLA,2024-149BT,2026-06-22T12:12:57.215520,15.11901580,.00013696,97.6732,255.9871,96.7498,263.3888,0,U,60533,999,10130,.5284271E-3,.8987E-4,0
LEMUR-2-MARHISYAM,2024-149BW,2026-06-22T16:33:24.920928,15.11350826,.00034682,97.6881,256.6237,107.1654,252.9956,0,U,60536,999,10131,.4467594E-3,.7471E-4,0
LEMUR-2-AHMED-ASRAR,2024-149DN,2026-06-22T12:29:12.414048,15.12810353,.00012628,97.7000,258.5666,25.0190,335.1101,0,U,60576,999,10137,.55472148E-3,.968E-4,0
LEMUR-2-LLOYD,2024-149DP,2026-06-22T16:15:48.223008,15.09327576,.00052829,97.6744,254.8099,125.2535,234.9189,0,U,60577,999,10122,.46560023E-3,.7367E-4,0
LEMUR-2-SQUIRRELCOMM,2024-149DQ,2026-06-21T18:28:50.232576,15.07194365,.00060428,97.6709,253.6668,47.8594,312.3146,0,U,60578,999,10109,.33630946E-3,.5001E-4,0
LEMUR-2-SIERRINI,2024-149DR,2026-06-22T20:19:39.478944,15.11043806,.00061312,97.6836,256.4642,149.7752,210.3833,0,U,60579,999,10131,.56535702E-3,.9397E-4,0
LEMUR-2-WILSON,2025-009CP,2026-06-22T10:46:21.733824,14.95185520,.0003968,97.7027,251.8212,43.9736,316.1800,0,U,62694,999,7814,.151522E-3,.1608E-4,0
LEMUR-2-STAR-FOX,2025-009CR,2026-06-22T16:29:01.597920,15.02569824,.00042845,97.6951,255.2563,99.7507,260.4202,0,U,62696,999,7838,.44339723E-3,.584E-4,0
LEMUR-2-ARIANNA,2025-009CU,2026-06-22T16:26:44.269440,15.02548482,.00046908,97.6889,255.0247,104.4527,255.7219,0,U,62699,999,7838,.40680611E-3,.535E-4,0
LEMUR-2-ALISIA,2025-009DB,2026-06-22T04:42:17.463744,15.02822076,.00025034,97.6932,255.3314,188.3741,171.7443,0,U,62706,999,10091,.39597032E-3,.5243E-4,0
